#dP2024  2 16  0  0  0.00000000      96 __u+U IGS20 FIT  IAC
## 2301 432000.00000000   900.00000000 60356 0.0000000000000
+  130   C01C02C03C04C05C06C07C08C09C10C11C12C13C14C16C19C20
+        C21C22C23C24C25C26C27C28C29C30C32C33C34C35C36C37C38
+        C39C40C41C42C43C44C45C46C59C60E02E03E04E05E07E08E09
+        E10E11E12E13E14E15E18E19E21E24E25E26E27E30E31E33E34
+        E36G01G02G03G04G05G06G07G08G09G10G11G12G13G14G15G16
+        G17G18G19G20G21G22G23G24G25G26G27G28G29G30G31G32J02
+        J03J04J07R01R02R03R04R05R06R07R08R09R10R11R12R13R14
+        R15R16R17R18R19R20R21R22R23R24R26  0  0  0  0  0  0
++        18 17 17 17 17  9 10 10  9  9  9  9  9  9  9  7  7
++         7  7  7  7  7  7  8  7  7  7  8  7  7  7  7  8  8
++         8  8  8  7  7  7  7  7 18 17  4  5  4  5  4  5  5
++         4  4  4  5  4  5  4  4  4  4  4  4  4  5  5  4  5
++         4  4  4  4  4  4  4  4  4  4  4  4  4  4  4  4  4
++         4  4  4  4  4  4  4  4  3  4  4  4  4  4  4  4  9
++         9  9  0  8  6  6  6  6 15  6  6  6 15  6  6  8  6
++         6  6  6  6  7  7  6  6 15  6  9  0  0  0  0  0  0
%c M  cc GPS ccc cccc cccc cccc cccc ccccc ccccc ccccc ccccc
%c cc cc ccc ccc cccc cccc cccc cccc ccccc ccccc ccccc ccccc
%f  0.0000000  0.000000000  0.00000000000  0.000000000000000
%f  0.0000000  0.000000000  0.00000000000  0.000000000000000
%i    0    0    0    0      0      0      0      0         0
%i    0    0    0    0      0      0      0      0         0
/* INFORMATION & ANALYSIS CENTER (IAC)            RAPID DATA
/* S/V CLOCKS ARE ALIGNED TO GNSS TIME                      
/* G:C1WC2W R:C1PC2P E:C1XC5X C:C2IC6I J:C1CC2S             
/* PCV:IGS20_2290 OL/AL:FES2004  NONE     YN ORB:CoN CLK:CoN
*  2024 02 16  6 45  0.00000000
PC01 -34375.243544  24423.675830   -815.337027    884.801200
PC02   4468.874686  41866.945098  -1555.617356    432.304360
PC03 -14762.807273  39441.178309  -1129.246228    -24.927424
PC04 -39674.886488  14329.782901   -396.629946    844.154320
PC05  21848.717032  35994.167699  -1271.896437   -731.402619
PC06 -11668.271072  40274.047088  -2480.851218    113.335691
PC07  -4215.788108  29180.937599  30270.803711   -809.420015
PC08 -18618.244352  23559.476888 -29689.676165 999999.999999
PC09  -6599.000798  40746.160239   7177.572287   -496.814276
PC10   3726.263712  31945.746591  27829.097534     83.040663
PC11  -7245.969889 -25591.715394   8508.681539    413.170682
PC12   4683.746234 -25661.068999  -9883.071499    768.759798
PC13  -9149.546825  24541.423876 -32944.969130    417.772780
PC14 -15243.315626 -17988.966852  14897.819494    201.452345
PC16 -12782.390591  39685.007343  -4567.977577   -342.653725
PC19  22491.801689  15131.153847  -6653.201707   -926.392146
PC20   7537.582534  18131.056767 -19826.836188   -167.619815
PC21  13487.363198 -10331.059591  22161.808689   -962.062841
PC22  25402.762379   3316.735102  11099.398282   -107.959976
PC23 -23894.322181   5157.689645 -13473.537232   -780.838999
PC24   5652.415890 -20324.097984 -18278.423673    889.043576
PC25 -13502.596223  -9958.035705 -22317.122313    327.361590
PC26  20199.501126 -18815.672801  -3981.526725   -249.896477
PC27  -9912.579973  20036.315678  16677.096812    271.881948
PC28 -15805.442859   2689.194005  22846.424597    206.849581
PC29  13350.259077  19108.209825 -15342.321241    242.450689
PC30   2224.905714  27735.869463   1930.608936    -25.826746
PC32 -13460.129988  10391.425906 -22104.961065   -568.373133
PC33 -22485.758323 -15052.300011   6794.111483   -949.168568
PC34  -3232.589396 -27728.955096   -446.699432    370.405211
PC35  15791.004952  -3214.002934 -22795.511280    432.492132
PC36  12807.757108  10667.454427  22392.963544    -13.237197
PC37 -20906.916967  18168.789717   3516.621243   -936.641222
PC38 -25048.568028  24999.623901 -22963.490880    137.121943
PC39 -14645.824363  37527.656723 -11984.021156     -7.158220
PC40  -7780.904881  23793.950996  33964.588387    -56.717513
PC41 -25619.062328  -3844.270916 -10300.398250   -891.571663
PC42  -5734.679425 -17938.083901  20630.210275   -453.996596
PC43 -13020.237221 -19914.414611  14593.410439     60.625149
PC44   9347.445771 -20305.139282 -16740.394067    385.990949
PC45  23904.513755  -5341.557857  13338.142048    -70.421355
PC46  -4906.308416  20014.302139  18822.562945   -124.247254
PC59 -32297.816689  27059.253922  -1408.254381     -0.249794
PC60   7261.632742  41502.876117  -1357.297385     -0.321837
PE02 -17147.210138  14068.313409  19599.524529    103.804832
PE03  -6444.017978  18670.334833 -22050.193964    -94.159547
PE04  -9978.561115 -26624.435104   8241.405878   -328.444869
PE05 -18875.052466    -65.112888 -22795.618755   4720.508299
PE07  20264.015979  19190.219092   9881.025857   -104.037584
PE08   9518.206253  26581.391521  -8901.203272   -224.661453
PE09 -20182.347694 -19296.704459  -9801.647804   -337.856123
PE10  -5709.756664 -19214.526159  21780.492156   -602.329431
PE11 -13041.558101  -9590.762017  24777.729686   3243.746035
PE12   1652.465379 -24982.711706  15811.548803   -908.517600
PE13  12587.104692  10203.862298 -24761.633417    -20.203728
PE14   -944.607433 -22735.986910 -12443.905658     40.808807
PE15  -2092.101748  25176.786755 -15403.459688    -86.088991
PE18  14173.533379  27872.812752   1303.080080    332.352806
PE19   8193.204225 -16810.416131  22954.812600   -605.518682
PE21  28998.681390  -4015.802003  -4361.377828   -579.277429
PE24 -24185.329220  -9234.295252 -14398.448771   -600.987677
PE25 -29098.296254   3744.812762   3964.153706      0.950593
PE26  19821.690262 -11048.764212 -18998.883648    370.214033
PE27  24457.623260   8888.153312  14087.917969   -275.964678
PE30   5229.627716  16491.562323  23997.944646     -2.223669
PE31  -5566.763263 -16396.845057 -24009.763856    -16.118493
PE33  15586.822659 -24938.202494  -3367.558391      7.665446
PE34 -15275.160972  25196.488315   2831.351832    -94.914736
PE36 -19659.572217  10448.748824  19505.780869   -186.630380
PG01 -12073.338857  23453.367673   -615.652276    169.747008
PG02 -14899.351224  20083.014252   9054.668047   -484.690294
PG03 -17053.407577  11940.265896 -16568.482413    196.283423
PG04  -7423.963551  15156.539705 -20458.724148    292.895766
PG05  25220.672448  -6333.433999   5464.514661   -162.005828
PG06  10719.499241  10458.137020 -21852.373925    405.157391
PG07  -2728.449007  23703.700481  11636.432233    -63.110472
PG08 -13681.091256   7066.499298  21563.466421   -167.260280
PG09   4578.725394  22754.977125 -12940.986071     93.799108
PG10 -16530.923457 -11098.902667  17943.978688      0.684456
PG11  17010.501345  -1527.635988 -20303.113156   -577.444946
PG12  18170.162795 -10993.281139 -16196.911743   -478.464184
PG13  16804.906563   3468.172374  20131.935326    625.972804
PG14  12551.672516  13506.538516  19206.371098    327.019949
PG15  12948.373577  -8765.321223  20990.849024    128.208320
PG16 -26795.152989   -912.113013    -25.792163   -361.588338
PG17  12425.368644  23370.404064   1064.366866    716.825798
PG18   2838.564131 -23247.958175  12362.535540   -556.642014
PG19  16561.338089  19138.149012  -8829.288152    441.348324
PG20  25291.027642   -201.483784  -7773.115756    387.316661
PG21 -16404.130020  15541.308194  13592.511098    134.752043
PG22  18984.130606  11194.120494  15038.136369     30.425465
PG23  -3254.250511 -14602.488078  21977.774064    157.228055
PG24  15170.021118 -19073.195518   9636.303919   -432.516094
PG25   6658.451682 -15405.104638 -20868.300706    488.727886
PG26 -24004.777183  -4959.196204 -10820.784063    189.692926
PG27 -18819.086903  -6370.002075  17558.141735     -4.459877
PG28  -9833.557349 -13279.843082 -20814.814798   -132.716180
PG29  -1321.553672 -22429.945360 -14132.510758   -606.882404
PG30   5960.713001  18189.535937  18432.235749   -431.944421
PG31 -15503.864016  -3390.075920 -21551.655515   -227.785815
PG32 -15896.316003 -21299.689379  -2057.888953   -611.883927
PJ02 -30886.607820  22395.407406  23039.978851     -2.032596
PJ03 -30008.515846  26865.047557  17656.830161     -0.228472
PJ04 -24116.632382  21949.351919 -21691.199157     50.900840
PJ07      0.000000      0.000000      0.000000 999999.999999
PR01  10194.217680  -6156.563304  22564.568272     77.303048
PR02  -6203.141387 -15480.976455  19375.945572    -22.477772
PR03 -19127.987878 -16172.679649   5035.603500     94.610896
PR04 -21076.044537  -8273.858788 -11729.636567    223.647166
PR05 -11864.507866   4155.858366 -22183.540571    126.982270
PR06   7803.953354  15635.100855 -18579.701845   -150.895091
PR07  19504.412946  15887.306240  -4014.458647     75.931696
PR08  21096.907921   7805.698247  12058.386401    -74.440555
PR09  -6441.931441  14431.480013  20009.027957    170.267476
PR10   8555.297826   7937.023396  22658.393832   -123.683604
PR11  21674.121704  -3720.963622  12943.115658     34.175841
PR12  20912.314018 -13252.923880  -6088.695689     36.797266
PR13   9129.993983 -14602.331040 -18835.590405    -44.397732
PR14 -10656.629356  -6785.261986 -22152.869326     26.069374
PR15 -22267.592946   4437.977951 -11609.833600     82.155289
PR16 -20974.808869  13254.122673   5851.504653     23.318589
PR17  -6180.075497 -17973.762784  17005.433692     61.643501
PR18 -10379.467756  -1611.256449  23263.287335    127.637432
PR19 -10239.003490  14032.390368  18680.453867   -265.993638
PR20  -3357.391929  25260.915656    -34.247068   -108.342030
PR21   6062.009609  17852.551716 -17188.480656    -77.369077
PR22  10878.544154    677.379001 -23033.814829    108.343114
PR23   9202.885398 -17410.214898 -16223.388335   -112.110746
PR24   2016.092244 -25416.262361    667.629146    -44.117042
PR26  21389.354776   8359.304860  11151.059016   -198.139883
EOF
